STARLINK-30380          
1 57780U 23134K   26183.54756772 -.00001109  00000+0 -30777-4 0  9993
2 57780  43.0020 265.7573 0001171 267.8164  92.2553 15.27569367157074
STARLINK-30369          
1 57781U 23134L   26183.60909278 -.00000230  00000+0  11786-5 0  9995
2 57781  43.0031 265.3559 0001186 276.4601  83.6116 15.27575912157088
STARLINK-30381          
1 57785U 23134Q   26183.68603191 -.00000786  00000+0 -19027-4 0  9994
2 57785  43.0021 264.9891 0001254 258.1250 101.9461 15.27575351157093
STARLINK-30841          
1 58208U 23170C   26183.68476003 -.00002107  00000+0 -67081-4 0  9997
2 58208  43.0026 265.0264 0001698 258.7965 101.2696 15.27574905147889
STARLINK-30836          
1 58221U 23170R   26183.67319583 -.00000134  00000+0  46549-5 0  9994
2 58221  43.0022 264.9501 0002162 253.5135 106.5479 15.27573394147889
STARLINK-30871          
1 58228U 23170Y   26183.61550858 -.00002341  00000+0 -75541-4 0  9993
2 58228  43.0071 265.3616 0002504 244.9451 115.1141 15.27577675147874
