{
  "schema": "int-temerity-real-tle-snapshot/v1",
  "source": "celestrak",
  "group": "STARLINK",
  "format": "celestrak-gp-json",
  "source_url": "https://celestrak.org/NORAD/elements/gp.php?NAME=STARLINK&FORMAT=JSON",
  "downloaded_at": "2026-07-03T12:25:16.552Z",
  "generated_at": "2026-07-03T12:25:35.465Z",
  "fingerprint": "eb0f9db4",
  "shell_id": "starlink-real-43deg-490km",
  "catalog_count": 10717,
  "shell_count": 3264,
  "selected_count": 1584,
  "mean_altitude_km": 490.23,
  "mean_inclination_deg": 43.0019,
  "mean_mean_motion_rev_per_day": 15.27566421,
  "layout": {
    "planes": 72,
    "satellites_per_plane": 22,
    "selection_strategy": "largest-shell-raan-clusters-even-slot-sampling",
    "raan_cluster_threshold_deg": 2.5,
    "selected_shell_key": "43.0deg-500km"
  },
  "satellites": [
    {
      "satellite_id": "P51-S05",
      "norad_id": 57785,
      "satellite_name": "STARLINK-30381",
      "cospar_id": "2023-134Q",
      "shell_id": "starlink-real-43deg-490km",
      "plane_id": 50,
      "slot_id": 4,
      "epoch": "2026-07-02T16:27:53.157024",
      "inclination": 43.0021,
      "raan": 264.9891,
      "eccentricity": 0.0001254,
      "argument_of_perigee": 258.125,
      "mean_anomaly": 101.9461,
      "mean_motion": 15.27575351,
      "bstar": -0.000019027,
      "status": "active",
      "raw_omm": {
        "OBJECT_NAME": "STARLINK-30381",
        "OBJECT_ID": "2023-134Q",
        "EPOCH": "2026-07-02T16:27:53.157024",
        "MEAN_MOTION": 15.27575351,
        "ECCENTRICITY": 0.0001254,
        "INCLINATION": 43.0021,
        "RA_OF_ASC_NODE": 264.9891,
        "ARG_OF_PERICENTER": 258.125,
        "MEAN_ANOMALY": 101.9461,
        "EPHEMERIS_TYPE": 0,
        "CLASSIFICATION_TYPE": "U",
        "NORAD_CAT_ID": 57785,
        "ELEMENT_SET_NO": 999,
        "REV_AT_EPOCH": 15709,
        "BSTAR": -0.000019027,
        "MEAN_MOTION_DOT": -0.00000786,
        "MEAN_MOTION_DDOT": 0
      },
      "source": "celestrak",
      "source_url": "https://celestrak.org/NORAD/elements/gp.php?NAME=STARLINK&FORMAT=JSON",
      "catalog_fingerprint": "eb0f9db4"
    },
    {
      "satellite_id": "P51-S06",
      "norad_id": 58208,
      "satellite_name": "STARLINK-30841",
      "cospar_id": "2023-170C",
      "shell_id": "starlink-real-43deg-490km",
      "plane_id": 50,
      "slot_id": 5,
      "epoch": "2026-07-02T16:26:03.266592",
      "inclination": 43.0026,
      "raan": 265.02639999999997,
      "eccentricity": 0.0001698,
      "argument_of_perigee": 258.7964999999999,
      "mean_anomaly": 101.26959999999997,
      "mean_motion": 15.27574905,
      "bstar": -0.000067081,
      "status": "active",
      "raw_omm": {
        "OBJECT_NAME": "STARLINK-30841",
        "OBJECT_ID": "2023-170C",
        "EPOCH": "2026-07-02T16:26:03.266592",
        "MEAN_MOTION": 15.27574905,
        "ECCENTRICITY": 0.0001698,
        "INCLINATION": 43.0026,
        "RA_OF_ASC_NODE": 265.0264,
        "ARG_OF_PERICENTER": 258.7965,
        "MEAN_ANOMALY": 101.2696,
        "EPHEMERIS_TYPE": 0,
        "CLASSIFICATION_TYPE": "U",
        "NORAD_CAT_ID": 58208,
        "ELEMENT_SET_NO": 999,
        "REV_AT_EPOCH": 14788,
        "BSTAR": -0.000067081,
        "MEAN_MOTION_DOT": -0.00002107,
        "MEAN_MOTION_DDOT": 0
      },
      "source": "celestrak",
      "source_url": "https://celestrak.org/NORAD/elements/gp.php?NAME=STARLINK&FORMAT=JSON",
      "catalog_fingerprint": "eb0f9db4"
    },
    {
      "satellite_id": "P51-S07",
      "norad_id": 58228,
      "satellite_name": "STARLINK-30871",
      "cospar_id": "2023-170Y",
      "shell_id": "starlink-real-43deg-490km",
      "plane_id": 50,
      "slot_id": 6,
      "epoch": "2026-07-02T14:46:19.941312",
      "inclination": 43.0071,
      "raan": 265.36159999999995,
      "eccentricity": 0.0002504,
      "argument_of_perigee": 244.94510000000002,
      "mean_anomaly": 115.11410000000001,
      "mean_motion": 15.27577675,
      "bstar": -0.000075541,
      "status": "active",
      "raw_omm": {
        "OBJECT_NAME": "STARLINK-30871",
        "OBJECT_ID": "2023-170Y",
        "EPOCH": "2026-07-02T14:46:19.941312",
        "MEAN_MOTION": 15.27577675,
        "ECCENTRICITY": 0.0002504,
        "INCLINATION": 43.0071,
        "RA_OF_ASC_NODE": 265.3616,
        "ARG_OF_PERICENTER": 244.9451,
        "MEAN_ANOMALY": 115.1141,
        "EPHEMERIS_TYPE": 0,
        "CLASSIFICATION_TYPE": "U",
        "NORAD_CAT_ID": 58228,
        "ELEMENT_SET_NO": 999,
        "REV_AT_EPOCH": 14787,
        "BSTAR": -0.000075541,
        "MEAN_MOTION_DOT": -0.00002341,
        "MEAN_MOTION_DDOT": 0
      },
      "source": "celestrak",
      "source_url": "https://celestrak.org/NORAD/elements/gp.php?NAME=STARLINK&FORMAT=JSON",
      "catalog_fingerprint": "eb0f9db4"
    },
    {
      "satellite_id": "P51-S08",
      "norad_id": 57780,
      "satellite_name": "STARLINK-30380",
      "cospar_id": "2023-134K",
      "shell_id": "starlink-real-43deg-490km",
      "plane_id": 50,
      "slot_id": 7,
      "epoch": "2026-07-02T13:08:29.851008",
      "inclination": 43.002,
      "raan": 265.7573,
      "eccentricity": 0.0001171,
      "argument_of_perigee": 267.81639999999993,
      "mean_anomaly": 92.25530000000003,
      "mean_motion": 15.27569367,
      "bstar": -0.000030777,
      "status": "active",
      "raw_omm": {
        "OBJECT_NAME": "STARLINK-30380",
        "OBJECT_ID": "2023-134K",
        "EPOCH": "2026-07-02T13:08:29.851008",
        "MEAN_MOTION": 15.27569367,
        "ECCENTRICITY": 0.0001171,
        "INCLINATION": 43.002,
        "RA_OF_ASC_NODE": 265.7573,
        "ARG_OF_PERICENTER": 267.8164,
        "MEAN_ANOMALY": 92.2553,
        "EPHEMERIS_TYPE": 0,
        "CLASSIFICATION_TYPE": "U",
        "NORAD_CAT_ID": 57780,
        "ELEMENT_SET_NO": 999,
        "REV_AT_EPOCH": 15707,
        "BSTAR": -0.000030777,
        "MEAN_MOTION_DOT": -0.00001109,
        "MEAN_MOTION_DDOT": 0
      },
      "source": "celestrak",
      "source_url": "https://celestrak.org/NORAD/elements/gp.php?NAME=STARLINK&FORMAT=JSON",
      "catalog_fingerprint": "eb0f9db4"
    },
    {
      "satellite_id": "P51-S09",
      "norad_id": 57781,
      "satellite_name": "STARLINK-30369",
      "cospar_id": "2023-134L",
      "shell_id": "starlink-real-43deg-490km",
      "plane_id": 50,
      "slot_id": 8,
      "epoch": "2026-07-02T14:37:05.616192",
      "inclination": 43.0031,
      "raan": 265.3559,
      "eccentricity": 0.0001186,
      "argument_of_perigee": 276.4601,
      "mean_anomaly": 83.61160000000001,
      "mean_motion": 15.27575912,
      "bstar": 0.0000011786,
      "status": "active",
      "raw_omm": {
        "OBJECT_NAME": "STARLINK-30369",
        "OBJECT_ID": "2023-134L",
        "EPOCH": "2026-07-02T14:37:05.616192",
        "MEAN_MOTION": 15.27575912,
        "ECCENTRICITY": 0.0001186,
        "INCLINATION": 43.0031,
        "RA_OF_ASC_NODE": 265.3559,
        "ARG_OF_PERICENTER": 276.4601,
        "MEAN_ANOMALY": 83.6116,
        "EPHEMERIS_TYPE": 0,
        "CLASSIFICATION_TYPE": "U",
        "NORAD_CAT_ID": 57781,
        "ELEMENT_SET_NO": 999,
        "REV_AT_EPOCH": 15708,
        "BSTAR": 0.0000011786,
        "MEAN_MOTION_DOT": -0.0000023,
        "MEAN_MOTION_DDOT": 0
      },
      "source": "celestrak",
      "source_url": "https://celestrak.org/NORAD/elements/gp.php?NAME=STARLINK&FORMAT=JSON",
      "catalog_fingerprint": "eb0f9db4"
    },
    {
      "satellite_id": "P51-S10",
      "norad_id": 58221,
      "satellite_name": "STARLINK-30836",
      "cospar_id": "2023-170R",
      "shell_id": "starlink-real-43deg-490km",
      "plane_id": 50,
      "slot_id": 9,
      "epoch": "2026-07-02T16:09:24.119712",
      "inclination": 43.0022,
      "raan": 264.9501,
      "eccentricity": 0.0002162,
      "argument_of_perigee": 253.51350000000002,
      "mean_anomaly": 106.54790000000003,
      "mean_motion": 15.27573394,
      "bstar": 0.0000046549,
      "status": "active",
      "raw_omm": {
        "OBJECT_NAME": "STARLINK-30836",
        "OBJECT_ID": "2023-170R",
        "EPOCH": "2026-07-02T16:09:24.119712",
        "MEAN_MOTION": 15.27573394,
        "ECCENTRICITY": 0.0002162,
        "INCLINATION": 43.0022,
        "RA_OF_ASC_NODE": 264.9501,
        "ARG_OF_PERICENTER": 253.5135,
        "MEAN_ANOMALY": 106.5479,
        "EPHEMERIS_TYPE": 0,
        "CLASSIFICATION_TYPE": "U",
        "NORAD_CAT_ID": 58221,
        "ELEMENT_SET_NO": 999,
        "REV_AT_EPOCH": 14788,
        "BSTAR": 0.0000046549,
        "MEAN_MOTION_DOT": -0.00000134,
        "MEAN_MOTION_DDOT": 0
      },
      "source": "celestrak",
      "source_url": "https://celestrak.org/NORAD/elements/gp.php?NAME=STARLINK&FORMAT=JSON",
      "catalog_fingerprint": "eb0f9db4"
    }
  ]
}